NORAD_CAT_ID,OBJECT_NAME,OBJECT_TYPE,EPOCH,MEAN_MOTION,ECCENTRICITY,INCLINATION,RA_OF_ASC_NODE,ARG_OF_PERICENTER,MEAN_ANOMALY,BSTAR,MEAN_MOTION_DOT,MEAN_MOTION_DDOT,TLE_LINE0,TLE_LINE1,TLE_LINE2,SEMIMAJOR_AXIS,PERIOD,APOGEE,PERIGEE,DECAYED
49168.0,STARLINK-3101,PAYLOAD,2024-08-04 13:06:09,14.98319096,0.0003194,69.9997,302.2346,269.5918,90.4875,6.3684e-05,6.67e-06,0.0,0 STARLINK-3101,1 49168U 21082AQ  24217.54593961  .00000667  00000-0  63684-4 0  9999,2 49168  69.9997 302.2346 0003194 269.5918  90.4875 14.98319096160477,6950.227,96.108,574.312,569.872,0.0
49168.0,STARLINK-3101,PAYLOAD,2024-08-04 14:42:17,14.98319572,0.0003167,70.0005,302.0716,251.8964,108.185,4.1323e-05,4e-06,0.0,0 STARLINK-3101,1 49168U 21082AQ  24217.61269909  .00000400  00000-0  41323-4 0  9990,2 49168  70.0005 302.0716 0003167 251.8964 108.1850 14.98319572160484,6950.225,96.108,574.291,569.889,0.0
49168.0,STARLINK-3101,PAYLOAD,2024-08-04 22:42:56,14.98334218,0.0003279,70.0011,301.2248,268.8405,91.2378,0.00012998,1.458e-05,0.0,0 STARLINK-3101,1 49168U 21082AQ  24217.94648870  .00001458  00000-0  12998-3 0  9993,2 49168  70.0011 301.2248 0003279 268.8405  91.2378 14.98334218160531,6950.18,96.107,574.324,569.766,0.0
49168.0,STARLINK-3101,PAYLOAD,2024-08-05 14:44:16,14.98349705,0.0003102,70.0013,299.5413,272.6274,87.453,0.0011103,0.00013187,0.0,0 STARLINK-3101,1 49168U 21082AQ  24218.61408513  .00013187  00000-0  11103-2 0  9994,2 49168  70.0013 299.5413 0003102 272.6274  87.4530 14.98349705160633,6950.132,96.106,574.153,569.841,0.0
49168.0,STARLINK-3101,PAYLOAD,2024-08-06 05:09:29,14.98345034,0.0001716,70.0047,298.0282,251.6134,108.4839,0.00032232,3.756e-05,0.0,0 STARLINK-3101,1 49168U 21082AQ  24219.21492395  .00003756  00000-0  32232-3 0  9990,2 49168  70.0047 298.0282 0001716 251.6134 108.4839 14.98345034160726,6950.146,96.106,573.204,570.819,0.0
49168.0,STARLINK-3101,PAYLOAD,2024-08-06 09:57:53,14.98338459,0.000253,70.0024,297.5229,266.9758,93.1112,0.00011428,1.271e-05,0.0,0 STARLINK-3101,1 49168U 21082AQ  24219.41520407  .00001271  00000-0  11428-3 0  9992,2 49168  70.0024 297.5229 0002530 266.9758  93.1112 14.98338459160752,6950.167,96.106,573.79,570.273,0.0
49168.0,STARLINK-3101,PAYLOAD,2024-08-06 13:10:09,14.98342898,0.0002498,70.0025,297.1865,266.9694,93.118,0.0004871,5.726e-05,0.0,0 STARLINK-3101,1 49168U 21082AQ  24219.54872327  .00005726  00000-0  48710-3 0  9990,2 49168  70.0025 297.1865 0002498 266.9694  93.1180 14.98342898160776,6950.153,96.106,573.754,570.282,0.0
49168.0,STARLINK-3101,PAYLOAD,2024-08-07 11:36:03,14.98321063,0.0002763,70.0013,294.8273,274.6882,85.3962,0.00032325,3.765e-05,0.0,0 STARLINK-3101,1 49168U 21082AQ  24220.48336947  .00003765  00000-0  32325-3 0  9994,2 49168  70.0013 294.8273 0002763 274.6882  85.3962 14.98321063160918,6950.221,96.108,574.006,570.165,0.0
49168.0,STARLINK-3101,PAYLOAD,2024-08-08 13:14:11,14.98341865,0.0003054,69.9996,292.1358,274.0221,86.0589,7.2281e-05,7.7e-06,0.0,0 STARLINK-3101,1 49168U 21082AQ  24221.55151733  .00000770  00000-0  72281-4 0  9990,2 49168  69.9996 292.1358 0003054 274.0221  86.0589 14.98341865161078,6950.156,96.106,574.144,569.899,0.0
49168.0,STARLINK-3101,PAYLOAD,2024-08-08 14:50:19,14.9834278,0.0003056,69.9996,291.9677,273.8551,86.2259,8.4623e-05,9.17e-06,0.0,0 STARLINK-3101,1 49168U 21082AQ  24221.61827621  .00000917  00000-0  84623-4 0  9999,2 49168  69.9996 291.9677 0003056 273.8551  86.2259 14.98342780161088,6950.153,96.106,574.142,569.894,0.0
49168.0,STARLINK-3101,PAYLOAD,2024-08-09 05:15:32,14.983182,0.0003341,70.0001,290.4514,272.9282,87.1494,-0.00011268,-1.437e-05,0.0,0 STARLINK-3101,1 49168U 21082AQ  24222.21913030 -.00001437  00000-0 -11268-3 0  9990,2 49168  70.0001 290.4514 0003341 272.9282  87.1494 14.98318200161171,6950.229,96.108,574.416,569.772,0.0
49168.0,STARLINK-3101,PAYLOAD,2024-08-09 13:16:13,14.98317328,0.0003046,69.9997,289.6108,270.3999,89.6811,2.3528e-06,-6.5e-07,0.0,0 STARLINK-3101,1 49168U 21082AQ  24222.55293866 -.00000065  00000-0  23528-5 0  9994,2 49168  69.9997 289.6108 0003046 270.3999  89.6811 14.98317328161226,6950.232,96.108,574.214,569.98,0.0
49168.0,STARLINK-3101,PAYLOAD,2024-08-09 14:52:22,14.98314552,0.0003195,69.9994,289.4418,272.3763,87.703,0.00013505,1.518e-05,0.0,0 STARLINK-3101,1 49168U 21082AQ  24222.61969957  .00001518  00000-0  13505-3 0  9997,2 49168  69.9994 289.4418 0003195 272.3763  87.7030 14.98314552161230,6950.241,96.108,574.326,569.885,0.0
49168.0,STARLINK-3101,PAYLOAD,2024-08-10 11:42:06,14.98327611,0.0002748,70.0013,287.255,262.005,98.0797,0.00017626,2.011e-05,0.0,0 STARLINK-3101,1 49168U 21082AQ  24223.48757454  .00002011  00000-0  17626-3 0  9997,2 49168  70.0013 287.2550 0002748 262.0050  98.0797 14.98327611161365,6950.2,96.107,573.975,570.155,0.0
49168.0,STARLINK-3101,PAYLOAD,2024-08-10 13:18:14,14.9832849,0.0002823,70.0012,287.0868,266.6319,93.4517,0.00017907,2.044e-05,0.0,0 STARLINK-3101,1 49168U 21082AQ  24223.55433454  .00002044  00000-0  17907-3 0  9994,2 49168  70.0012 287.0868 0002823 266.6319  93.4517 14.98328490161372,6950.198,96.107,574.025,570.101,0.0
49168.0,STARLINK-3101,PAYLOAD,2024-08-10 14:54:22,14.98330787,0.0002943,70.001,286.9182,268.6896,91.3925,0.00021955,2.528e-05,0.0,0 STARLINK-3101,1 49168U 21082AQ  24223.62109355  .00002528  00000-0  21955-3 0  9997,2 49168  70.0010 286.9182 0002943 268.6896  91.3925 14.98330787161385,6950.19,96.107,574.101,570.01,0.0
49168.0,STARLINK-3101,PAYLOAD,2024-08-10 21:18:54,14.98338731,0.0003153,70.0032,286.2473,263.7508,96.3291,0.00041039,4.808e-05,0.0,0 STARLINK-3101,1 49168U 21082AQ  24223.88813001  .00004808  00000-0  41039-3 0  9993,2 49168  70.0032 286.2473 0003153 263.7508  96.3291 14.98338731161428,6950.166,96.106,574.222,569.84,0.0
49168.0,STARLINK-3101,PAYLOAD,2024-08-11 14:56:22,14.98355875,0.0003393,70.0002,284.3918,267.2956,92.7814,0.00074308,8.791e-05,0.0,0 STARLINK-3101,1 49168U 21082AQ  24224.62247766  .00008791  00000-0  74308-3 0  9995,2 49168  70.0002 284.3918 0003393 267.2956  92.7814 14.98355875161531,6950.113,96.105,574.336,569.62,0.0
49168.0,STARLINK-3101,PAYLOAD,2024-08-11 21:20:54,14.9835123,0.0003496,70.0004,283.7183,269.8489,90.2269,0.00022285,2.568e-05,0.0,0 STARLINK-3101,1 49168U 21082AQ  24224.88951647  .00002568  00000-0  22285-3 0  9996,2 49168  70.0004 283.7183 0003496 269.8489  90.2269 14.98351230161575,6950.127,96.106,574.422,569.562,0.0
49168.0,STARLINK-3101,PAYLOAD,2024-08-12 05:21:34,14.98338731,0.0003283,70.0007,282.8776,267.7172,92.3611,-7.8776e-06,-1.87e-06,0.0,0 STARLINK-3101,1 49168U 21082AQ  24225.22332048 -.00000187  00000-0 -78776-5 0  9998,2 49168  70.0007 282.8776 0003283 267.7172  92.3611 14.98338731161627,6950.166,96.106,574.313,569.749,0.0
49168.0,STARLINK-3101,PAYLOAD,2024-08-12 13:22:14,14.98355655,0.0003531,70.0004,282.0355,263.1474,96.9284,0.00040584,4.756e-05,0.0,0 STARLINK-3101,1 49168U 21082AQ  24225.55711137  .00004756  00000-0  40584-3 0  9992,2 49168  70.0004 282.0355 0003531 263.1474  96.9284 14.98355655161675,6950.114,96.105,574.433,569.524,0.0
49168.0,STARLINK-3101,PAYLOAD,2024-08-13 05:23:35,14.98330639,0.0003767,70.0,280.3511,274.0506,86.0222,-0.00022183,-2.739e-05,0.0,0 STARLINK-3101,1 49168U 21082AQ  24226.22471624 -.00002739  00000-0 -22183-3 0  9997,2 49168  70.0000 280.3511 0003767 274.0506  86.0222 14.98330639161772,6950.191,96.107,574.674,569.438,0.0
49168.0,STARLINK-3101,PAYLOAD,2024-08-13 10:11:59,14.9832959,0.0003451,69.9996,279.8467,270.1932,89.8831,-0.00020498,-2.538e-05,0.0,0 STARLINK-3101,1 49168U 21082AQ  24226.42499655 -.00002538  00000-0 -20498-3 0  9997,2 49168  69.9996 279.8467 0003451 270.1932  89.8831 14.98329590161801,6950.194,96.107,574.458,569.661,0.0
49168.0,STARLINK-3101,PAYLOAD,2024-08-13 21:24:56,14.98331374,0.0003045,70.0001,278.6684,269.7779,90.3031,-4.419e-06,-1.46e-06,0.0,0 STARLINK-3101,1 49168U 21082AQ  24226.89231804 -.00000146  00000-0 -44190-5 0  9998,2 49168  70.0001 278.6684 0003045 269.7779  90.3031 14.98331374161870,6950.189,96.107,574.17,569.937,0.0
49168.0,STARLINK-3101,PAYLOAD,2024-08-14 05:25:36,14.983295,0.0003251,70.0001,277.8272,268.7001,91.3786,0.00010022,1.103e-05,0.0,0 STARLINK-3101,1 49168U 21082AQ  24227.22611932  .00001103  00000-0  10022-3 0  9997,2 49168  70.0001 277.8272 0003251 268.7001  91.3786 14.98329500161922,6950.194,96.107,574.319,569.8,0.0
49168.0,STARLINK-3101,PAYLOAD,2024-08-14 11:50:11,14.9826922,0.0002932,70.0002,277.1542,267.7774,92.305,-0.0014085,-0.00016832,0.0,0 STARLINK-3101,1 49168U 21082AQ  24227.49318508 -.00016832  00000-0 -14085-2 0  9998,2 49168  70.0002 277.1542 0002932 267.7774  92.3050 14.98269220161968,6950.381,96.111,574.284,570.208,0.0
49168.0,STARLINK-3101,PAYLOAD,2024-08-14 13:26:19,14.98262979,0.0002744,70.0007,276.9864,267.648,92.4365,-0.0015213,-0.00018166,0.0,0 STARLINK-3101,1 49168U 21082AQ  24227.55995091 -.00018166  00000-0 -15213-2 0  9999,2 49168  70.0007 276.9864 0002744 267.6480  92.4365 14.98262979161976,6950.4,96.111,574.172,570.358,0.0
49168.0,STARLINK-3101,PAYLOAD,2024-08-15 03:51:31,14.9831106,0.000303,69.9998,275.4704,268.4767,91.6045,6.4657e-06,-1.6e-07,0.0,0 STARLINK-3101,1 49168U 21082AQ  24228.16078210 -.00000016  00000-0  64657-5 0  9995,2 49168  69.9998 275.4704 0003030 268.4767  91.6045 14.98311060162068,6950.251,96.108,574.222,570.011,0.0
49168.0,STARLINK-3101,PAYLOAD,2024-08-15 10:16:04,14.98314432,0.0002432,70.001,274.7957,278.9459,81.1424,0.00016896,1.923e-05,0.0,0 STARLINK-3101,1 49168U 21082AQ  24228.42782519  .00001923  00000-0  16896-3 0  9995,2 49168  70.0010 274.7957 0002432 278.9459  81.1424 14.98314432162103,6950.241,96.108,573.796,570.416,0.0
49168.0,STARLINK-3101,PAYLOAD,2024-08-16 05:29:41,14.98322914,0.000291,69.9983,272.7758,277.7392,82.3437,0.00014616,1.651e-05,0.0,0 STARLINK-3101,1 49168U 21082AQ  24229.22894752  .00001651  00000-0  14616-3 0  9993,2 49168  69.9983 272.7758 0002910 277.7392  82.3437 14.98322914162224,6950.215,96.107,574.102,570.057,0.0
